[{"OBJECT_NAME":"STARLINK-35517","OBJECT_ID":"2025-245L","EPOCH":"2026-03-09T21:35:07.028160","MEAN_MOTION":15.30203063,"ECCENTRICITY":0.00011293,"INCLINATION":53.1572,"RA_OF_ASC_NODE":282.5658,"ARG_OF_PERICENTER":125.5948,"MEAN_ANOMALY":234.5158,"EPHEMERIS_TYPE":0,"CLASSIFICATION_TYPE":"U","NORAD_CAT_ID":66244,"ELEMENT_SET_NO":999,"REV_AT_EPOCH":2108,"BSTAR":0.00071963644,"MEAN_MOTION_DOT":0.00021017,"MEAN_MOTION_DDOT":0},{"OBJECT_NAME":"CXBN","OBJECT_ID":"2012-048E","EPOCH":"2026-03-09T15:19:34.514688","MEAN_MOTION":15.19824857,"ECCENTRICITY":0.0107387,"INCLINATION":64.6612,"RA_OF_ASC_NODE":146.5396,"ARG_OF_PERICENTER":203.7806,"MEAN_ANOMALY":155.8339,"EPHEMERIS_TYPE":0,"CLASSIFICATION_TYPE":"U","NORAD_CAT_ID":38762,"ELEMENT_SET_NO":999,"REV_AT_EPOCH":10314,"BSTAR":0.00060054,"MEAN_MOTION_DOT":0.00014901,"MEAN_MOTION_DDOT":0}]
